[{"OBJECT_NAME":"STARLINK-3642","OBJECT_ID":"2022-025AK","EPOCH":"2026-03-09T21:50:00.780864","MEAN_MOTION":15.08837467,"ECCENTRICITY":0.00013569,"INCLINATION":53.2185,"RA_OF_ASC_NODE":38.1354,"ARG_OF_PERICENTER":74.365,"MEAN_ANOMALY":285.7492,"EPHEMERIS_TYPE":0,"CLASSIFICATION_TYPE":"U","NORAD_CAT_ID":51989,"ELEMENT_SET_NO":999,"REV_AT_EPOCH":22109,"BSTAR":1.7985561e-5,"MEAN_MOTION_DOT":-2.0e-8,"MEAN_MOTION_DDOT":0},{"OBJECT_NAME":"COSMOS 2058","OBJECT_ID":"1990-010A","EPOCH":"2026-03-09T23:30:01.891584","MEAN_MOTION":15.11324867,"ECCENTRICITY":0.00093159,"INCLINATION":82.4669,"RA_OF_ASC_NODE":47.1427,"ARG_OF_PERICENTER":343.3032,"MEAN_ANOMALY":16.789,"EPHEMERIS_TYPE":0,"CLASSIFICATION_TYPE":"U","NORAD_CAT_ID":20465,"ELEMENT_SET_NO":999,"REV_AT_EPOCH":94228,"BSTAR":0.00029943939,"MEAN_MOTION_DOT":5.077e-5,"MEAN_MOTION_DDOT":0}]
